{"type": "FeatureCollection", "features": [ {"type": "Feature", "properties": {"norad_id": 32200, "name": "FENGYUN 1C DEB", "group": "fengyun-1c-debris", "lat": 51.83539797095562, "lon": 25.543135953492587, "alt_km": 851.9343199602881, "timestamp": "2025-12-13T22:39:29.996185+00:00", "meta": {"OBJECT_NAME": "FENGYUN 1C DEB", "OBJECT_ID": "1999-025CUW", "EPOCH": "2025-12-12T14:10:54.235200", "MEAN_MOTION": 14.15698368, "ECCENTRICITY": 0.0039559, "INCLINATION": 98.7917, "RA_OF_ASC_NODE": 35.565, "ARG_OF_PERICENTER": 290.2112, "MEAN_ANOMALY": 69.481, "EPHEMERIS_TYPE": 0, "CLASSIFICATION_TYPE": "U", "NORAD_CAT_ID": 32200, "ELEMENT_SET_NO": 999, "REV_AT_EPOCH": 94361, "BSTAR": 0.0015422148, "MEAN_MOTION_DOT": 3.004e-05, "MEAN_MOTION_DDOT": 0}, "tle": {"line1": "1 32200U 99025CUW 25346.59090550  .00003004  00000+0  15422-2 0  9997", "line2": "2 32200  98.7917  35.5650 0039559 290.2112  69.4810 14.15698368943614"}}, "geometry": {"type": "Point", "coordinates": [25.543135953492587, 51.83539797095562]}}, {"type": "Feature", "properties": {"norad_id": 32203, "name": "FENGYUN 1C DEB", "group": "fengyun-1c-debris", "lat": 26.5930893064157, "lon": -124.15460722787518, "alt_km": 393.000808890657, "timestamp": "2025-12-13T22:39:29.996196+00:00", "meta": {"OBJECT_NAME": "FENGYUN 1C DEB", "OBJECT_ID": "1999-025CUZ", "EPOCH": "2025-12-13T03:50:25.700352", "MEAN_MOTION": 15.40837621, "ECCENTRICITY": 0.01446294, "INCLINATION": 97.0168, "RA_OF_ASC_NODE": 238.6272, "ARG_OF_PERICENTER": 90.3444, "MEAN_ANOMALY": 271.4378, "EPHEMERIS_TYPE": 0, "CLASSIFICATION_TYPE": "U", "NORAD_CAT_ID": 32203, "ELEMENT_SET_NO": 999, "REV_AT_EPOCH": 75104, "BSTAR": 0.0010184859, "MEAN_MOTION_DOT": 0.00061185, "MEAN_MOTION_DDOT": 0}, "tle": {"line1": "1 32203U 99025CUZ 25347.16001968  .00061185  00000+0  10185-2 0  9994", "line2": "2 32203  97.0168 238.6272 0144629  90.3444 271.4378 15.40837621751049"}}, "geometry": {"type": "Point", "coordinates": [-124.15460722787518, 26.5930893064157]}}, {"type": "Feature", "properties": {"norad_id": 32205, "name": "FENGYUN 1C DEB", "group": "fengyun-1c-debris", "lat": 17.520945420811863, "lon": -10.955546412460768, "alt_km": 846.2665320330752, "timestamp": "2025-12-13T22:39:29.996206+00:00", "meta": {"OBJECT_NAME": "FENGYUN 1C DEB", "OBJECT_ID": "1999-025CVB", "EPOCH": "2025-12-12T18:31:12.058176", "MEAN_MOTION": 14.13911373, "ECCENTRICITY": 0.00100512, "INCLINATION": 98.6781, "RA_OF_ASC_NODE": 350.67, "ARG_OF_PERICENTER": 292.1251, "MEAN_ANOMALY": 241.1802, "EPHEMERIS_TYPE": 0, "CLASSIFICATION_TYPE": "U", "NORAD_CAT_ID": 32205, "ELEMENT_SET_NO": 999, "REV_AT_EPOCH": 94498, "BSTAR": 0.00025703103, "MEAN_MOTION_DOT": 4.45e-06, "MEAN_MOTION_DDOT": 0}, "tle": {"line1": "1 32205U 99025CVB 25346.77166734  .00000445  00000+0  25703-3 0  9990", "line2": "2 32205  98.6781 350.6700 0010051 292.1251 241.1802 14.13911373944988"}}, "geometry": {"type": "Point", "coordinates": [-10.955546412460768, 17.520945420811863]}}, {"type": "Feature", "properties": {"norad_id": 32207, "name": "FENGYUN 1C DEB", "group": "fengyun-1c-debris", "lat": -40.90535469481044, "lon": 118.38139939127976, "alt_km": 763.0507616557516, "timestamp": "2025-12-13T22:39:29.996217+00:00", "meta": {"OBJECT_NAME": "FENGYUN 1C DEB", "OBJECT_ID": "1999-025CVD", "EPOCH": "2025-12-12T04:00:31.760928", "MEAN_MOTION": 14.39569701, "ECCENTRICITY": 0.00852472, "INCLINATION": 99.8553, "RA_OF_ASC_NODE": 305.0027, "ARG_OF_PERICENTER": 139.3042, "MEAN_ANOMALY": 236.8167, "EPHEMERIS_TYPE": 0, "CLASSIFICATION_TYPE": "U", "NORAD_CAT_ID": 32207, "ELEMENT_SET_NO": 999, "REV_AT_EPOCH": 64299, "BSTAR": 0.00048704631, "MEAN_MOTION_DOT": 1.529e-05, "MEAN_MOTION_DDOT": 0}, "tle": {"line1": "1 32207U 99025CVD 25346.16703427  .00001529  00000+0  48705-3 0  9992", "line2": "2 32207  99.8553 305.0027 0085247 139.3042 236.8167 14.39569701642998"}}, "geometry": {"type": "Point", "coordinates": [118.38139939127976, -40.90535469481044]}}, {"type": "Feature", "properties": {"norad_id": 32209, "name": "FENGYUN 1C DEB", "group": "fengyun-1c-debris", "lat": 53.57467982436854, "lon": -77.70675460956662, "alt_km": 865.3636488908314, "timestamp": "2025-12-13T22:39:29.996227+00:00", "meta": {"OBJECT_NAME": "FENGYUN 1C DEB", "OBJECT_ID": "1999-025CVF", "EPOCH": "2025-12-13T02:47:56.046624", "MEAN_MOTION": 13.47174829, "ECCENTRICITY": 0.03331967, "INCLINATION": 99.4202, "RA_OF_ASC_NODE": 294.5137, "ARG_OF_PERICENTER": 24.3394, "MEAN_ANOMALY": 337.3078, "EPHEMERIS_TYPE": 0, "CLASSIFICATION_TYPE": "U", "NORAD_CAT_ID": 32209, "ELEMENT_SET_NO": 999, "REV_AT_EPOCH": 89981, "BSTAR": 0.0038477572, "MEAN_MOTION_DOT": 3.245e-05, "MEAN_MOTION_DDOT": 0}, "tle": {"line1": "1 32209U 99025CVF 25347.11662091  .00003245  00000+0  38478-2 0  9993", "line2": "2 32209  99.4202 294.5137 0333196  24.3394 337.3078 13.47174829899817"}}, "geometry": {"type": "Point", "coordinates": [-77.70675460956662, 53.57467982436854]}}, {"type": "Feature", "properties": {"norad_id": 32212, "name": "FENGYUN 1C DEB", "group": "fengyun-1c-debris", "lat": -71.57087172016662, "lon": 115.20669304993042, "alt_km": 848.8591394081159, "timestamp": "2025-12-13T22:39:29.996237+00:00", "meta": {"OBJECT_NAME": "FENGYUN 1C DEB", "OBJECT_ID": "1999-025CVJ", "EPOCH": "2025-12-12T05:27:47.664864", "MEAN_MOTION": 14.40319948, "ECCENTRICITY": 0.01379946, "INCLINATION": 99.5732, "RA_OF_ASC_NODE": 82.8595, "ARG_OF_PERICENTER": 80.0007, "MEAN_ANOMALY": 311.5035, "EPHEMERIS_TYPE": 0, "CLASSIFICATION_TYPE": "U", "NORAD_CAT_ID": 32212, "ELEMENT_SET_NO": 999, "REV_AT_EPOCH": 96054, "BSTAR": 0.00070927237, "MEAN_MOTION_DOT": 2.459e-05, "MEAN_MOTION_DDOT": 0}, "tle": {"line1": "1 32212U 99025CVJ 25346.22763501  .00002459  00000+0  70927-3 0  9998", "line2": "2 32212  99.5732  82.8595 0137994  80.0007 311.5035 14.40319948960547"}}, "geometry": {"type": "Point", "coordinates": [115.20669304993042, -71.57087172016662]}}, {"type": "Feature", "properties": {"norad_id": 32214, "name": "FENGYUN 1C DEB", "group": "fengyun-1c-debris", "lat": -77.60215777129642, "lon": 147.09940561309077, "alt_km": 1029.1245599985132, "timestamp": "2025-12-13T22:39:29.996248+00:00", "meta": {"OBJECT_NAME": "FENGYUN 1C DEB", "OBJECT_ID": "1999-025CVL", "EPOCH": "2025-12-12T00:38:51.787392", "MEAN_MOTION": 13.90525289, "ECCENTRICITY": 0.0188558, "INCLINATION": 99.0438, "RA_OF_ASC_NODE": 11.6619, "ARG_OF_PERICENTER": 41.1528, "MEAN_ANOMALY": 350.1279, "EPHEMERIS_TYPE": 0, "CLASSIFICATION_TYPE": "U", "NORAD_CAT_ID": 32214, "ELEMENT_SET_NO": 999, "REV_AT_EPOCH": 62412, "BSTAR": 0.0062452, "MEAN_MOTION_DOT": 8.939e-05, "MEAN_MOTION_DDOT": 0}, "tle": {"line1": "1 32214U 99025CVL 25346.02698828  .00008939  00000+0  62452-2 0  9999", "line2": "2 32214  99.0438  11.6619 0188558  41.1528 350.1279 13.90525289624123"}}, "geometry": {"type": "Point", "coordinates": [147.09940561309077, -77.60215777129642]}}, {"type": "Feature", "properties": {"norad_id": 32218, "name": "FENGYUN 1C DEB", "group": "fengyun-1c-debris", "lat": 53.708399195003466, "lon": 169.67735437613496, "alt_km": 658.4275790476277, "timestamp": "2025-12-13T22:39:29.996258+00:00", "meta": {"OBJECT_NAME": "FENGYUN 1C DEB", "OBJECT_ID": "1999-025CVQ", "EPOCH": "2025-12-12T09:01:04.254816", "MEAN_MOTION": 14.55483404, "ECCENTRICITY": 0.00631955, "INCLINATION": 98.8122, "RA_OF_ASC_NODE": 180.2188, "ARG_OF_PERICENTER": 68.5908, "MEAN_ANOMALY": 53.1957, "EPHEMERIS_TYPE": 0, "CLASSIFICATION_TYPE": "U", "NORAD_CAT_ID": 32218, "ELEMENT_SET_NO": 999, "REV_AT_EPOCH": 96227, "BSTAR": 0.0012558302, "MEAN_MOTION_DOT": 5.564e-05, "MEAN_MOTION_DDOT": 0}, "tle": {"line1": "1 32218U 99025CVQ 25346.37574369  .00005564  00000+0  12558-2 0  9997", "line2": "2 32218  98.8122 180.2188 0063195  68.5908  53.1957 14.55483404962270"}}, "geometry": {"type": "Point", "coordinates": [169.67735437613496, 53.708399195003466]}}, {"type": "Feature", "properties": {"norad_id": 32221, "name": "FENGYUN 1C DEB", "group": "fengyun-1c-debris", "lat": -42.27857109430849, "lon": 145.77866195463005, "alt_km": 807.4396554066607, "timestamp": "2025-12-13T22:39:29.996268+00:00", "meta": {"OBJECT_NAME": "FENGYUN 1C DEB", "OBJECT_ID": "1999-025CVT", "EPOCH": "2025-12-12T08:59:43.035360", "MEAN_MOTION": 14.58695293, "ECCENTRICITY": 0.01467707, "INCLINATION": 98.5654, "RA_OF_ASC_NODE": 136.2843, "ARG_OF_PERICENTER": 146.8533, "MEAN_ANOMALY": 214.1968, "EPHEMERIS_TYPE": 0, "CLASSIFICATION_TYPE": "U", "NORAD_CAT_ID": 32221, "ELEMENT_SET_NO": 999, "REV_AT_EPOCH": 97192, "BSTAR": 0.0006364895, "MEAN_MOTION_DOT": 3.392e-05, "MEAN_MOTION_DDOT": 0}, "tle": {"line1": "1 32221U 99025CVT 25346.37480365  .00003392  00000+0  63649-3 0  9998", "line2": "2 32221  98.5654 136.2843 0146770 146.8533 214.1968 14.58695293971922"}}, "geometry": {"type": "Point", "coordinates": [145.77866195463005, -42.27857109430849]}}, {"type": "Feature", "properties": {"norad_id": 32223, "name": "FENGYUN 1C DEB", "group": "fengyun-1c-debris", "lat": 41.370682039174866, "lon": 59.13148769949895, "alt_km": 817.5824011146024, "timestamp": "2025-12-13T22:39:29.996278+00:00", "meta": {"OBJECT_NAME": "FENGYUN 1C DEB", "OBJECT_ID": "1999-025CVV", "EPOCH": "2025-12-12T04:20:53.532096", "MEAN_MOTION": 14.20890687, "ECCENTRICITY": 0.00468069, "INCLINATION": 98.8387, "RA_OF_ASC_NODE": 65.245, "ARG_OF_PERICENTER": 319.1378, "MEAN_ANOMALY": 69.6947, "EPHEMERIS_TYPE": 0, "CLASSIFICATION_TYPE": "U", "NORAD_CAT_ID": 32223, "ELEMENT_SET_NO": 999, "REV_AT_EPOCH": 64216, "BSTAR": 0.0020402533, "MEAN_MOTION_DOT": 4.42e-05, "MEAN_MOTION_DDOT": 0}, "tle": {"line1": "1 32223U 99025CVV 25346.18117514  .00004420  00000+0  20403-2 0  9995", "line2": "2 32223  98.8387  65.2450 0046806 319.1378  69.6947 14.20890687642160"}}, "geometry": {"type": "Point", "coordinates": [59.13148769949895, 41.370682039174866]}}]}